start=new Date('2023-01-09T00:00:00.000Z').valueOf();
sats=[{"LAUNCH_DATE":"2022-06-17","TLE_LINE2":"2 52872  53.2163 164.5240 0001432  63.5254 296.5885 15.08837054 31517","PERIOD":"95.438","ECCENTRICITY":"0.00014320","BSTAR":"0.00003209100000","GP_ID":"222468490","FILE":"3736235","OBJECT_NAME":"STARLINK-4213","CENTER_NAME":"EARTH","MEAN_MOTION_DDOT":"0.0000000000000","RA_OF_ASC_NODE":"164.5240","RCS_SIZE":"LARGE","SEMIMAJOR_AXIS":"6917.889","DECAY_DATE":null,"CLASSIFICATION_TYPE":"U","MEAN_ELEMENT_THEORY":"SGP4","EPOCH":"2023-01-08T11:36:26.606592","INCLINATION":"53.2163","REV_AT_EPOCH":"3151","TLE_LINE1":"1 52872U 22062AU  23008.48364128  .00000223  00000-0  32091-4 0  9991","ELEMENT_SET_NO":"999","OBJECT_ID":"2022-062AU","EPHEMERIS_TYPE":"0","MEAN_ANOMALY":"296.5885","APOAPSIS":"540.745","NORAD_CAT_ID":"52872","MEAN_MOTION_DOT":"0.00000223","OBJECT_TYPE":"PAYLOAD","ARG_OF_PERICENTER":"63.5254","SITE":"AFETR","MEAN_MOTION":"15.08837054","COUNTRY_CODE":"US","PERIAPSIS":"538.764","TIME_SYSTEM":"UTC","REF_FRAME":"TEME"},{"REV_AT_EPOCH":"3156","INCLINATION":"53.2176","EPOCH":"2023-01-08T19:12:10.704960","MEAN_ANOMALY":"318.3050","EPHEMERIS_TYPE":"0","ELEMENT_SET_NO":"999","OBJECT_ID":"2022-062AV","TLE_LINE1":"1 52873U 22062AV  23008.80012390  .00002272  00000-0  16080-3 0  9994","GP_ID":"222500223","FILE":"3736460","OBJECT_NAME":"STARLINK-4211","BSTAR":"0.00016080000000","PERIOD":"95.438","ECCENTRICITY":"0.00026640","LAUNCH_DATE":"2022-06-17","TLE_LINE2":"2 52873  53.2176 163.1115 0002664  41.8145 318.3050 15.08839947 31569","CLASSIFICATION_TYPE":"U","MEAN_ELEMENT_THEORY":"SGP4","DECAY_DATE":null,"SEMIMAJOR_AXIS":"6917.881","RA_OF_ASC_NODE":"163.1115","RCS_SIZE":"LARGE","MEAN_MOTION_DDOT":"0.0000000000000","CENTER_NAME":"EARTH","COUNTRY_CODE":"US","REF_FRAME":"TEME","TIME_SYSTEM":"UTC","PERIAPSIS":"537.903","SITE":"AFETR","ARG_OF_PERICENTER":"41.8145","OBJECT_TYPE":"PAYLOAD","MEAN_MOTION_DOT":"0.00002272","NORAD_CAT_ID":"52873","APOAPSIS":"541.588","MEAN_MOTION":"15.08839947"},{"TLE_LINE1":"1 52874U 22062AW  23008.47996934 -.00001174  00000-0 -55652-4 0  9994","ELEMENT_SET_NO":"999","OBJECT_ID":"2022-062AW","EPHEMERIS_TYPE":"0","MEAN_ANOMALY":"306.5313","EPOCH":"2023-01-08T11:31:09.350976","REV_AT_EPOCH":"3151","INCLINATION":"53.2179","RA_OF_ASC_NODE":"164.5444","RCS_SIZE":"LARGE","CENTER_NAME":"EARTH","MEAN_MOTION_DDOT":"0.0000000000000","DECAY_DATE":null,"SEMIMAJOR_AXIS":"6917.918","CLASSIFICATION_TYPE":"U","MEAN_ELEMENT_THEORY":"SGP4","PERIOD":"95.438","ECCENTRICITY":"0.00022490","TLE_LINE2":"2 52874  53.2179 164.5444 0002249  53.5887 306.5313 15.08827556 31514","LAUNCH_DATE":"2022-06-17","OBJECT_NAME":"STARLINK-4210","GP_ID":"222466989","FILE":"3736235","BSTAR":"-0.00005565200000","TIME_SYSTEM":"UTC","PERIAPSIS":"538.228","REF_FRAME":"TEME","COUNTRY_CODE":"US","MEAN_MOTION":"15.08827556","NORAD_CAT_ID":"52874","APOAPSIS":"541.339","ARG_OF_PERICENTER":"53.5887","OBJECT_TYPE":"PAYLOAD","MEAN_MOTION_DOT":"-0.00001174","SITE":"AFETR"},{"REV_AT_EPOCH":"3157","INCLINATION":"53.2165","EPOCH":"2023-01-08T20:42:15.741216","EPHEMERIS_TYPE":"0","MEAN_ANOMALY":"315.8217","TLE_LINE1":"1 52875U 22062AX  23008.86268219  .00000630  00000-0  57718-4 0  9995","ELEMENT_SET_NO":"999","OBJECT_ID":"2022-062AX","GP_ID":"222499221","OBJECT_NAME":"STARLINK-4193","FILE":"3736460","BSTAR":"0.00005771800000","PERIOD":"95.438","ECCENTRICITY":"0.00024340","LAUNCH_DATE":"2022-06-17","TLE_LINE2":"2 52875  53.2165 162.8304 0002434  44.2970 315.8217 15.08837113 31574","DECAY_DATE":null,"SEMIMAJOR_AXIS":"6917.889","CLASSIFICATION_TYPE":"U","MEAN_ELEMENT_THEORY":"SGP4","RA_OF_ASC_NODE":"162.8304","RCS_SIZE":"LARGE","MEAN_MOTION_DDOT":"0.0000000000000","CENTER_NAME":"EARTH","COUNTRY_CODE":"US","REF_FRAME":"TEME","TIME_SYSTEM":"UTC","PERIAPSIS":"538.070","SITE":"AFETR","NORAD_CAT_ID":"52875","APOAPSIS":"541.438","ARG_OF_PERICENTER":"44.2970","MEAN_MOTION_DOT":"0.00000630","OBJECT_TYPE":"PAYLOAD","MEAN_MOTION":"15.08837113"},{"TLE_LINE1":"1 52876U 22062AY  23008.80380554  .00002121  00000-0  15136-3 0  9991","ELEMENT_SET_NO":"999","OBJECT_ID":"2022-062AY","EPHEMERIS_TYPE":"0","MEAN_ANOMALY":"318.4970","EPOCH":"2023-01-08T19:17:28.798656","REV_AT_EPOCH":"3156","INCLINATION":"53.2189","RA_OF_ASC_NODE":"163.0823","RCS_SIZE":"LARGE","CENTER_NAME":"EARTH","MEAN_MOTION_DDOT":"0.0000000000000","DECAY_DATE":null,"SEMIMAJOR_AXIS":"6917.887","MEAN_ELEMENT_THEORY":"SGP4","CLASSIFICATION_TYPE":"U","ECCENTRICITY":"0.00032300","PERIOD":"95.438","LAUNCH_DATE":"2022-06-17","TLE_LINE2":"2 52876  53.2189 163.0823 0003230  41.6267 318.4970 15.08837938 31564","FILE":"3736460","GP_ID":"222499473","OBJECT_NAME":"STARLINK-4200","BSTAR":"0.00015136000000","TIME_SYSTEM":"UTC","PERIAPSIS":"537.517","REF_FRAME":"TEME","COUNTRY_CODE":"US","MEAN_MOTION":"15.08837938","NORAD_CAT_ID":"52876","APOAPSIS":"541.986","ARG_OF_PERICENTER":"41.6267","OBJECT_TYPE":"PAYLOAD","MEAN_MOTION_DOT":"0.00002121","SITE":"AFETR"},{"COUNTRY_CODE":"US","TIME_SYSTEM":"UTC","PERIAPSIS":"537.964","REF_FRAME":"TEME","ARG_OF_PERICENTER":"39.8440","MEAN_MOTION_DOT":"0.00001212","OBJECT_TYPE":"PAYLOAD","NORAD_CAT_ID":"52877","APOAPSIS":"541.555","SITE":"AFETR","MEAN_MOTION":"15.08835352","EPOCH":"2023-01-08T13:43:37.590240","REV_AT_EPOCH":"3153","INCLINATION":"53.2171","ELEMENT_SET_NO":"999","OBJECT_ID":"2022-062AZ","TLE_LINE1":"1 52877U 22062AZ  23008.57196285  .00001212  00000-0  94269-4 0  9997","MEAN_ANOMALY":"320.2742","EPHEMERIS_TYPE":"0","ECCENTRICITY":"0.00025950","PERIOD":"95.438","LAUNCH_DATE":"2022-06-17","TLE_LINE2":"2 52877  53.2171 164.1292 0002595  39.8440 320.2742 15.08835352 31536","OBJECT_NAME":"STARLINK-4214","GP_ID":"222499724","FILE":"3736460","BSTAR":"0.00009426900000","RCS_SIZE":"LARGE","RA_OF_ASC_NODE":"164.1292","MEAN_MOTION_DDOT":"0.0000000000000","CENTER_NAME":"EARTH","CLASSIFICATION_TYPE":"U","MEAN_ELEMENT_THEORY":"SGP4","DECAY_DATE":null,"SEMIMAJOR_AXIS":"6917.895"},{"CLASSIFICATION_TYPE":"U","MEAN_ELEMENT_THEORY":"SGP4","DECAY_DATE":null,"SEMIMAJOR_AXIS":"6917.871","RA_OF_ASC_NODE":"163.1377","RCS_SIZE":"LARGE","MEAN_MOTION_DDOT":"0.0000000000000","CENTER_NAME":"EARTH","FILE":"3736460","GP_ID":"222498472","OBJECT_NAME":"STARLINK-4171","BSTAR":"0.00021199000000","PERIOD":"95.437","ECCENTRICITY":"0.00028370","LAUNCH_DATE":"2022-06-17","TLE_LINE2":"2 52878  53.2166 163.1377 0002837  42.0224 318.0985 15.08843193 31568","MEAN_ANOMALY":"318.0985","EPHEMERIS_TYPE":"0","ELEMENT_SET_NO":"999","OBJECT_ID":"2022-062BA","TLE_LINE1":"1 52878U 22062BA  23008.79276035  .00003087  00000-0  21199-3 0  9997","REV_AT_EPOCH":"3156","INCLINATION":"53.2166","EPOCH":"2023-01-08T19:01:34.494240","MEAN_MOTION":"15.08843193","SITE":"AFETR","ARG_OF_PERICENTER":"42.0224","MEAN_MOTION_DOT":"0.00003087","OBJECT_TYPE":"PAYLOAD","NORAD_CAT_ID":"52878","APOAPSIS":"541.698","REF_FRAME":"TEME","TIME_SYSTEM":"UTC","PERIAPSIS":"537.773","COUNTRY_CODE":"US"},{"MEAN_MOTION":"15.08849374","SITE":"AFETR","APOAPSIS":"541.433","NORAD_CAT_ID":"52879","OBJECT_TYPE":"PAYLOAD","MEAN_MOTION_DOT":"0.00005199","ARG_OF_PERICENTER":"54.1301","REF_FRAME":"TEME","PERIAPSIS":"538.000","TIME_SYSTEM":"UTC","COUNTRY_CODE":"US","DECAY_DATE":null,"SEMIMAJOR_AXIS":"6917.852","MEAN_ELEMENT_THEORY":"SGP4","CLASSIFICATION_TYPE":"U","MEAN_MOTION_DDOT":"0.0000000000000","CENTER_NAME":"EARTH","RA_OF_ASC_NODE":"164.1809","RCS_SIZE":"LARGE","BSTAR":"0.00034445000000","FILE":"3736460","GP_ID":"222498722","OBJECT_NAME":"STARLINK-4139","LAUNCH_DATE":"2022-06-17","TLE_LINE2":"2 52879  53.2162 164.1809 0002481  54.1301 305.9922 15.08849374 31531","ECCENTRICITY":"0.00024810","PERIOD":"95.437","EPHEMERIS_TYPE":"0","MEAN_ANOMALY":"305.9922","TLE_LINE1":"1 52879U 22062BB  23008.56092268  .00005199  00000-0  34445-3 0  9991","ELEMENT_SET_NO":"999","OBJECT_ID":"2022-062BB","INCLINATION":"53.2162","REV_AT_EPOCH":"3153","EPOCH":"2023-01-08T13:27:43.719552"},{"ELEMENT_SET_NO":"999","OBJECT_ID":"2022-062BC","TLE_LINE1":"1 52880U 22062BC  23008.82957429  .00001248  00000-0  96476-4 0  9995","MEAN_ANOMALY":"303.1136","EPHEMERIS_TYPE":"0","EPOCH":"2023-01-08T19:54:35.218656","REV_AT_EPOCH":"3157","INCLINATION":"53.2176","RA_OF_ASC_NODE":"162.9792","RCS_SIZE":"LARGE","MEAN_MOTION_DDOT":"0.0000000000000","CENTER_NAME":"EARTH","CLASSIFICATION_TYPE":"U","MEAN_ELEMENT_THEORY":"SGP4","SEMIMAJOR_AXIS":"6917.863","DECAY_DATE":null,"PERIOD":"95.437","ECCENTRICITY":"0.00026380","LAUNCH_DATE":"2022-06-17","TLE_LINE2":"2 52880  53.2176 162.9792 0002638  57.0109 303.1136 15.08845764 31577","FILE":"3736460","GP_ID":"222499973","OBJECT_NAME":"STARLINK-4186","BSTAR":"0.00009647600000","TIME_SYSTEM":"UTC","PERIAPSIS":"537.903","REF_FRAME":"TEME","COUNTRY_CODE":"US","MEAN_MOTION":"15.08845764","ARG_OF_PERICENTER":"57.0109","MEAN_MOTION_DOT":"0.00001248","OBJECT_TYPE":"PAYLOAD","NORAD_CAT_ID":"52880","APOAPSIS":"541.553","SITE":"AFETR"},{"COUNTRY_CODE":"US","REF_FRAME":"TEME","PERIAPSIS":"537.620","TIME_SYSTEM":"UTC","SITE":"AFETR","OBJECT_TYPE":"PAYLOAD","MEAN_MOTION_DOT":"0.00001627","ARG_OF_PERICENTER":"45.7036","APOAPSIS":"541.864","NORAD_CAT_ID":"52881","MEAN_MOTION":"15.08841094","INCLINATION":"53.2181","REV_AT_EPOCH":"3151","EPOCH":"2023-01-08T10:27:32.611968","MEAN_ANOMALY":"314.4207","EPHEMERIS_TYPE":"0","ELEMENT_SET_NO":"999","OBJECT_ID":"2022-062BD","TLE_LINE1":"1 52881U 22062BD  23008.43579412  .00001627  00000-0  12033-3 0  9992","BSTAR":"0.00012033000000","FILE":"3736235","GP_ID":"222466740","OBJECT_NAME":"STARLINK-4192","TLE_LINE2":"2 52881  53.2181 164.7460 0003067  45.7036 314.4207 15.08841094 31516","LAUNCH_DATE":"2022-06-17","PERIOD":"95.437","ECCENTRICITY":"0.00030670","CLASSIFICATION_TYPE":"U","MEAN_ELEMENT_THEORY":"SGP4","SEMIMAJOR_AXIS":"6917.877","DECAY_DATE":null,"MEAN_MOTION_DDOT":"0.0000000000000","CENTER_NAME":"EARTH","RCS_SIZE":"LARGE","RA_OF_ASC_NODE":"164.7460"}];
